{"type": "FeatureCollection", "features": [ {"type": "Feature", "properties": {"norad_id": 33980, "name": "COSMOS 2251 DEB", "group": "cosmos-2251-debris", "lat": -48.990519353842615, "lon": 16.47571736054301, "alt_km": 716.4600790129462, "timestamp": "2025-12-25T03:55:56.760512+00:00", "meta": {"OBJECT_NAME": "COSMOS 2251 DEB", "OBJECT_ID": "1993-036FP", "EPOCH": "2025-12-24T13:54:49.591296", "MEAN_MOTION": 14.58713965, "ECCENTRICITY": 0.0027948, "INCLINATION": 74.0206, "RA_OF_ASC_NODE": 36.8284, "ARG_OF_PERICENTER": 179.8238, "MEAN_ANOMALY": 302.1629, "EPHEMERIS_TYPE": 0, "CLASSIFICATION_TYPE": "U", "NORAD_CAT_ID": 33980, "ELEMENT_SET_NO": 999, "REV_AT_EPOCH": 88967, "BSTAR": 0.00057401, "MEAN_MOTION_DOT": 2.664e-05, "MEAN_MOTION_DDOT": 0}, "tle": {"line1": "1 33980U 93036FP  25358.57974064  .00002664  00000+0  57401-3 0  9996", "line2": "2 33980  74.0206  36.8284 0027948 179.8238 302.1629 14.58713965889673"}}, "geometry": {"type": "Point", "coordinates": [16.47571736054301, -48.990519353842615]}}, {"type": "Feature", "properties": {"norad_id": 33982, "name": "COSMOS 2251 DEB", "group": "cosmos-2251-debris", "lat": -48.901191374400106, "lon": 175.37617411915144, "alt_km": 742.8259114532711, "timestamp": "2025-12-25T03:55:56.760523+00:00", "meta": {"OBJECT_NAME": "COSMOS 2251 DEB", "OBJECT_ID": "1993-036FR", "EPOCH": "2025-12-24T07:26:21.129792", "MEAN_MOTION": 14.60262052, "ECCENTRICITY": 0.00754762, "INCLINATION": 74.0713, "RA_OF_ASC_NODE": 337.8918, "ARG_OF_PERICENTER": 19.1407, "MEAN_ANOMALY": 45.8917, "EPHEMERIS_TYPE": 0, "CLASSIFICATION_TYPE": "U", "NORAD_CAT_ID": 33982, "ELEMENT_SET_NO": 999, "REV_AT_EPOCH": 89328, "BSTAR": 0.00056794915, "MEAN_MOTION_DOT": 2.823e-05, "MEAN_MOTION_DDOT": 0}, "tle": {"line1": "1 33982U 93036FR  25358.30996678  .00002823  00000+0  56795-3 0  9996", "line2": "2 33982  74.0713 337.8918 0075476  19.1407  45.8917 14.60262052893281"}}, "geometry": {"type": "Point", "coordinates": [175.37617411915144, -48.901191374400106]}}, {"type": "Feature", "properties": {"norad_id": 33983, "name": "COSMOS 2251 DEB", "group": "cosmos-2251-debris", "lat": 72.43906053351044, "lon": -120.93247557628274, "alt_km": 725.205392043581, "timestamp": "2025-12-25T03:55:56.760533+00:00", "meta": {"OBJECT_NAME": "COSMOS 2251 DEB", "OBJECT_ID": "1993-036FS", "EPOCH": "2025-12-24T19:45:36.707328", "MEAN_MOTION": 14.50719504, "ECCENTRICITY": 0.0021124, "INCLINATION": 74.0505, "RA_OF_ASC_NODE": 124.3499, "ARG_OF_PERICENTER": 226.1875, "MEAN_ANOMALY": 253.7952, "EPHEMERIS_TYPE": 0, "CLASSIFICATION_TYPE": "U", "NORAD_CAT_ID": 33983, "ELEMENT_SET_NO": 999, "REV_AT_EPOCH": 88804, "BSTAR": 0.00059218, "MEAN_MOTION_DOT": 2.308e-05, "MEAN_MOTION_DDOT": 0}, "tle": {"line1": "1 33983U 93036FS  25358.82334152  .00002308  00000+0  59218-3 0  9998", "line2": "2 33983  74.0505 124.3499 0021124 226.1875 253.7952 14.50719504888049"}}, "geometry": {"type": "Point", "coordinates": [-120.93247557628274, 72.43906053351044]}}, {"type": "Feature", "properties": {"norad_id": 33984, "name": "COSMOS 2251 DEB", "group": "cosmos-2251-debris", "lat": -5.931016511361677, "lon": 144.81636328655057, "alt_km": 661.8294778791796, "timestamp": "2025-12-25T03:55:56.760544+00:00", "meta": {"OBJECT_NAME": "COSMOS 2251 DEB", "OBJECT_ID": "1993-036FT", "EPOCH": "2025-12-24T16:25:46.873920", "MEAN_MOTION": 14.66463013, "ECCENTRICITY": 0.0022464, "INCLINATION": 74.0099, "RA_OF_ASC_NODE": 324.0344, "ARG_OF_PERICENTER": 158.5576, "MEAN_ANOMALY": 18.1606, "EPHEMERIS_TYPE": 0, "CLASSIFICATION_TYPE": "U", "NORAD_CAT_ID": 33984, "ELEMENT_SET_NO": 999, "REV_AT_EPOCH": 89241, "BSTAR": 0.00087977, "MEAN_MOTION_DOT": 4.861e-05, "MEAN_MOTION_DDOT": 0}, "tle": {"line1": "1 33984U 93036FT  25358.68457030  .00004861  00000+0  87977-3 0  9993", "line2": "2 33984  74.0099 324.0344 0022464 158.5576  18.1606 14.66463013892413"}}, "geometry": {"type": "Point", "coordinates": [144.81636328655057, -5.931016511361677]}}, {"type": "Feature", "properties": {"norad_id": 33986, "name": "COSMOS 2251 DEB", "group": "cosmos-2251-debris", "lat": -53.5829905866772, "lon": 122.42547707805376, "alt_km": 765.6818155615529, "timestamp": "2025-12-25T03:55:56.760554+00:00", "meta": {"OBJECT_NAME": "COSMOS 2251 DEB", "OBJECT_ID": "1993-036FV", "EPOCH": "2025-12-24T20:26:35.699712", "MEAN_MOTION": 14.43260292, "ECCENTRICITY": 0.0041085, "INCLINATION": 74.0366, "RA_OF_ASC_NODE": 280.1744, "ARG_OF_PERICENTER": 350.3243, "MEAN_ANOMALY": 66.1991, "EPHEMERIS_TYPE": 0, "CLASSIFICATION_TYPE": "U", "NORAD_CAT_ID": 33986, "ELEMENT_SET_NO": 999, "REV_AT_EPOCH": 88203, "BSTAR": 0.00070853, "MEAN_MOTION_DOT": 2.383e-05, "MEAN_MOTION_DDOT": 0}, "tle": {"line1": "1 33986U 93036FV  25358.85180208  .00002383  00000+0  70853-3 0  9996", "line2": "2 33986  74.0366 280.1744 0041085 350.3243  66.1991 14.43260292882037"}}, "geometry": {"type": "Point", "coordinates": [122.42547707805376, -53.5829905866772]}}, {"type": "Feature", "properties": {"norad_id": 33990, "name": "COSMOS 2251 DEB", "group": "cosmos-2251-debris", "lat": 72.8384850373257, "lon": -24.968369850873582, "alt_km": 1348.1943883719996, "timestamp": "2025-12-25T03:55:56.760565+00:00", "meta": {"OBJECT_NAME": "COSMOS 2251 DEB", "OBJECT_ID": "1993-036FZ", "EPOCH": "2025-12-24T20:43:39.511200", "MEAN_MOTION": 13.50014361, "ECCENTRICITY": 0.0407316, "INCLINATION": 73.9283, "RA_OF_ASC_NODE": 266.53, "ARG_OF_PERICENTER": 284.6565, "MEAN_ANOMALY": 139.1733, "EPHEMERIS_TYPE": 0, "CLASSIFICATION_TYPE": "U", "NORAD_CAT_ID": 33990, "ELEMENT_SET_NO": 999, "REV_AT_EPOCH": 82893, "BSTAR": 0.00073633, "MEAN_MOTION_DOT": 7.6e-06, "MEAN_MOTION_DDOT": 0}, "tle": {"line1": "1 33990U 93036FZ  25358.86365175  .00000760  00000+0  73633-3 0  9996", "line2": "2 33990  73.9283 266.5300 0407316 284.6565 139.1733 13.50014361828938"}}, "geometry": {"type": "Point", "coordinates": [-24.968369850873582, 72.8384850373257]}}, {"type": "Feature", "properties": {"norad_id": 33992, "name": "COSMOS 2251 DEB", "group": "cosmos-2251-debris", "lat": 39.27568685715382, "lon": -32.68019473411573, "alt_km": 636.7665957461631, "timestamp": "2025-12-25T03:55:56.760575+00:00", "meta": {"OBJECT_NAME": "COSMOS 2251 DEB", "OBJECT_ID": "1993-036GB", "EPOCH": "2025-12-24T15:28:16.826016", "MEAN_MOTION": 14.6630825, "ECCENTRICITY": 0.0051875, "INCLINATION": 74.0248, "RA_OF_ASC_NODE": 314.7724, "ARG_OF_PERICENTER": 68.9677, "MEAN_ANOMALY": 112.9235, "EPHEMERIS_TYPE": 0, "CLASSIFICATION_TYPE": "U", "NORAD_CAT_ID": 33992, "ELEMENT_SET_NO": 999, "REV_AT_EPOCH": 89299, "BSTAR": 0.00087298, "MEAN_MOTION_DOT": 4.886e-05, "MEAN_MOTION_DDOT": 0}, "tle": {"line1": "1 33992U 93036GB  25358.64463919  .00004886  00000+0  87298-3 0  9994", "line2": "2 33992  74.0248 314.7724 0051875  68.9677 112.9235 14.66308250892995"}}, "geometry": {"type": "Point", "coordinates": [-32.68019473411573, 39.27568685715382]}}, {"type": "Feature", "properties": {"norad_id": 33994, "name": "COSMOS 2251 DEB", "group": "cosmos-2251-debris", "lat": -73.3057939846123, "lon": 94.83950519120457, "alt_km": 745.8496697674227, "timestamp": "2025-12-25T03:55:56.760585+00:00", "meta": {"OBJECT_NAME": "COSMOS 2251 DEB", "OBJECT_ID": "1993-036GD", "EPOCH": "2025-12-24T20:30:26.296128", "MEAN_MOTION": 14.41221883, "ECCENTRICITY": 0.0024012, "INCLINATION": 74.0415, "RA_OF_ASC_NODE": 167.9907, "ARG_OF_PERICENTER": 300.2708, "MEAN_ANOMALY": 170.2487, "EPHEMERIS_TYPE": 0, "CLASSIFICATION_TYPE": "U", "NORAD_CAT_ID": 33994, "ELEMENT_SET_NO": 999, "REV_AT_EPOCH": 88594, "BSTAR": 9.4576e-05, "MEAN_MOTION_DOT": 2.8e-06, "MEAN_MOTION_DDOT": 0}, "tle": {"line1": "1 33994U 93036GD  25358.85447102  .00000280  00000+0  94576-4 0  9997", "line2": "2 33994  74.0415 167.9907 0024012 300.2708 170.2487 14.41221883885946"}}, "geometry": {"type": "Point", "coordinates": [94.83950519120457, -73.3057939846123]}}, {"type": "Feature", "properties": {"norad_id": 33995, "name": "COSMOS 2251 DEB", "group": "cosmos-2251-debris", "lat": 59.66237858424847, "lon": 125.8513804380218, "alt_km": 738.6501201859901, "timestamp": "2025-12-25T03:55:56.760595+00:00", "meta": {"OBJECT_NAME": "COSMOS 2251 DEB", "OBJECT_ID": "1993-036GE", "EPOCH": "2025-12-24T17:35:48.264864", "MEAN_MOTION": 14.34828474, "ECCENTRICITY": 0.0059308, "INCLINATION": 74.0615, "RA_OF_ASC_NODE": 97.4102, "ARG_OF_PERICENTER": 108.3943, "MEAN_ANOMALY": 252.3671, "EPHEMERIS_TYPE": 0, "CLASSIFICATION_TYPE": "U", "NORAD_CAT_ID": 33995, "ELEMENT_SET_NO": 999, "REV_AT_EPOCH": 87691, "BSTAR": 0.00082357, "MEAN_MOTION_DOT": 2.36e-05, "MEAN_MOTION_DDOT": 0}, "tle": {"line1": "1 33995U 93036GE  25358.73319751  .00002360  00000+0  82357-3 0  9997", "line2": "2 33995  74.0615  97.4102 0059308 108.3943 252.3671 14.34828474876912"}}, "geometry": {"type": "Point", "coordinates": [125.8513804380218, 59.66237858424847]}}, {"type": "Feature", "properties": {"norad_id": 33999, "name": "COSMOS 2251 DEB", "group": "cosmos-2251-debris", "lat": -54.675254380853026, "lon": 50.01694230722707, "alt_km": 648.5385181552829, "timestamp": "2025-12-25T03:55:56.760606+00:00", "meta": {"OBJECT_NAME": "COSMOS 2251 DEB", "OBJECT_ID": "1993-036GJ", "EPOCH": "2025-12-24T15:32:16.588608", "MEAN_MOTION": 14.83586221, "ECCENTRICITY": 0.004444, "INCLINATION": 73.9173, "RA_OF_ASC_NODE": 207.0245, "ARG_OF_PERICENTER": 98.8925, "MEAN_ANOMALY": 261.7288, "EPHEMERIS_TYPE": 0, "CLASSIFICATION_TYPE": "U", "NORAD_CAT_ID": 33999, "ELEMENT_SET_NO": 999, "REV_AT_EPOCH": 89427, "BSTAR": 0.0012174, "MEAN_MOTION_DOT": 0.00010191, "MEAN_MOTION_DDOT": 0}, "tle": {"line1": "1 33999U 93036GJ  25358.64741422  .00010191  00000+0  12174-2 0  9995", "line2": "2 33999  73.9173 207.0245 0044440  98.8925 261.7288 14.83586221894276"}}, "geometry": {"type": "Point", "coordinates": [50.01694230722707, -54.675254380853026]}}]}